[
  {
    "OBJECT_NAME": "STARLINK-30138",
    "OBJECT_ID": "23119D",
    "EPOCH": "2025-11-11T03:45:01.580256",
    "MEAN_MOTION": 15.02534925,
    "ECCENTRICITY": 0.0001165,
    "INCLINATION": 43.0041,
    "RA_OF_ASC_NODE": 5.8406,
    "ARG_OF_PERICENTER": 259.2284,
    "MEAN_ANOMALY": 100.8427,
    "EPHEMERIS_TYPE": 0,
    "CLASSIFICATION_TYPE": "U",
    "NORAD_CAT_ID": 57605,
    "ELEMENT_SET_NO": 999,
    "REV_AT_EPOCH": 12525,
    "BSTAR": 8.2734e-05,
    "MEAN_MOTION_DOT": 9.14e-06,
    "MEAN_MOTION_DDOT": 0.0,
    "TLE_LINE1": "1 57605U 23119D   25315.15626829  .00000914  00000+0  82734-4 0  9995",
    "TLE_LINE2": "2 57605  43.0041   5.8406 0001165 259.2284 100.8427 15.02534925125258",
    "COMMENT": "Grouped by shell and plane from TLE"
  },
  {
    "OBJECT_NAME": "STARLINK-30255",
    "OBJECT_ID": "23119E",
    "EPOCH": "2025-11-11T04:43:59.395008",
    "MEAN_MOTION": 15.02455031,
    "ECCENTRICITY": 9.86e-05,
    "INCLINATION": 43.0046,
    "RA_OF_ASC_NODE": 5.2806,
    "ARG_OF_PERICENTER": 199.8488,
    "MEAN_ANOMALY": 160.2316,
    "EPHEMERIS_TYPE": 0,
    "CLASSIFICATION_TYPE": "U",
    "NORAD_CAT_ID": 57606,
    "ELEMENT_SET_NO": 999,
    "REV_AT_EPOCH": 12526,
    "BSTAR": 0.001523,
    "MEAN_MOTION_DOT": 0.00020385,
    "MEAN_MOTION_DDOT": 0.0,
    "TLE_LINE1": "1 57606U 23119E   25315.19721522  .00020385  00000+0  15230-2 0  9995",
    "TLE_LINE2": "2 57606  43.0046   5.2806 0000986 199.8488 160.2316 15.02455031125265",
    "COMMENT": "Grouped by shell and plane from TLE"
  },
  {
    "OBJECT_NAME": "STARLINK-30258",
    "OBJECT_ID": "23119G",
    "EPOCH": "2025-11-11T03:32:13.640640",
    "MEAN_MOTION": 15.02535339,
    "ECCENTRICITY": 0.0001267,
    "INCLINATION": 43.003,
    "RA_OF_ASC_NODE": 5.7685,
    "ARG_OF_PERICENTER": 271.6424,
    "MEAN_ANOMALY": 88.4273,
    "EPHEMERIS_TYPE": 0,
    "CLASSIFICATION_TYPE": "U",
    "NORAD_CAT_ID": 57608,
    "ELEMENT_SET_NO": 999,
    "REV_AT_EPOCH": 12525,
    "BSTAR": 5.1578000000000007e-05,
    "MEAN_MOTION_DOT": 4.93e-06,
    "MEAN_MOTION_DDOT": 0.0,
    "TLE_LINE1": "1 57608U 23119G   25315.14738010  .00000493  00000+0  51578-4 0  9997",
    "TLE_LINE2": "2 57608  43.0030   5.7685 0001267 271.6424  88.4273 15.02535339125254",
    "COMMENT": "Grouped by shell and plane from TLE"
  },
  {
    "OBJECT_NAME": "STARLINK-30174",
    "OBJECT_ID": "23119H",
    "EPOCH": "2025-11-11T03:21:03.371904",
    "MEAN_MOTION": 15.02522907,
    "ECCENTRICITY": 7.01e-05,
    "INCLINATION": 43.0006,
    "RA_OF_ASC_NODE": 5.7103,
    "ARG_OF_PERICENTER": 280.696,
    "MEAN_ANOMALY": 79.3804,
    "EPHEMERIS_TYPE": 0,
    "CLASSIFICATION_TYPE": "U",
    "NORAD_CAT_ID": 57609,
    "ELEMENT_SET_NO": 999,
    "REV_AT_EPOCH": 12525,
    "BSTAR": 0.0,
    "MEAN_MOTION_DOT": -9.45e-06,
    "MEAN_MOTION_DDOT": 0.0,
    "TLE_LINE1": "1 57609U 23119H   25315.13962236 -.00000945  00000+0 -54916-4 0  9999",
    "TLE_LINE2": "2 57609  43.0006   5.7103 0000701 280.6960  79.3804 15.02522907125256",
    "COMMENT": "Grouped by shell and plane from TLE"
  },
  {
    "OBJECT_NAME": "STARLINK-30248",
    "OBJECT_ID": "23119J",
    "EPOCH": "2025-11-11T05:01:33.767904",
    "MEAN_MOTION": 15.02536975,
    "ECCENTRICITY": 0.0001135,
    "INCLINATION": 43.0026,
    "RA_OF_ASC_NODE": 5.3779,
    "ARG_OF_PERICENTER": 273.0898,
    "MEAN_ANOMALY": 86.9814,
    "EPHEMERIS_TYPE": 0,
    "CLASSIFICATION_TYPE": "U",
    "NORAD_CAT_ID": 57610,
    "ELEMENT_SET_NO": 999,
    "REV_AT_EPOCH": 12526,
    "BSTAR": 0.00019678000000000002,
    "MEAN_MOTION_DOT": 2.456e-05,
    "MEAN_MOTION_DDOT": 0.0,
    "TLE_LINE1": "1 57610U 23119J   25315.20941861  .00002456  00000+0  19678-3 0  9992",
    "TLE_LINE2": "2 57610  43.0026   5.3779 0001135 273.0898  86.9814 15.02536975125269",
    "COMMENT": "Grouped by shell and plane from TLE"
  },
  {
    "OBJECT_NAME": "STARLINK-30052",
    "OBJECT_ID": "23119K",
    "EPOCH": "2025-11-11T04:51:58.103712",
    "MEAN_MOTION": 15.02548077,
    "ECCENTRICITY": 0.0001901,
    "INCLINATION": 43.0017,
    "RA_OF_ASC_NODE": 5.3227,
    "ARG_OF_PERICENTER": 280.3753,
    "MEAN_ANOMALY": 79.6875,
    "EPHEMERIS_TYPE": 0,
    "CLASSIFICATION_TYPE": "U",
    "NORAD_CAT_ID": 57611,
    "ELEMENT_SET_NO": 999,
    "REV_AT_EPOCH": 12524,
    "BSTAR": 0.00031559,
    "MEAN_MOTION_DOT": 4.063e-05,
    "MEAN_MOTION_DDOT": 0.0,
    "TLE_LINE1": "1 57611U 23119K   25315.20275583  .00004063  00000+0  31559-3 0  9992",
    "TLE_LINE2": "2 57611  43.0017   5.3227 0001901 280.3753  79.6875 15.02548077125240",
    "COMMENT": "Grouped by shell and plane from TLE"
  },
  {
    "OBJECT_NAME": "STARLINK-30245",
    "OBJECT_ID": "23119L",
    "EPOCH": "2025-11-11T04:47:10.276800",
    "MEAN_MOTION": 15.02539276,
    "ECCENTRICITY": 0.0001627,
    "INCLINATION": 43.0056,
    "RA_OF_ASC_NODE": 5.3003,
    "ARG_OF_PERICENTER": 278.2714,
    "MEAN_ANOMALY": 81.7943,
    "EPHEMERIS_TYPE": 0,
    "CLASSIFICATION_TYPE": "U",
    "NORAD_CAT_ID": 57612,
    "ELEMENT_SET_NO": 999,
    "REV_AT_EPOCH": 12526,
    "BSTAR": 4.8639e-05,
    "MEAN_MOTION_DOT": 4.53e-06,
    "MEAN_MOTION_DDOT": 0.0,
    "TLE_LINE1": "1 57612U 23119L   25315.19942450  .00000453  00000+0  48639-4 0  9992",
    "TLE_LINE2": "2 57612  43.0056   5.3003 0001627 278.2714  81.7943 15.02539276125267",
    "COMMENT": "Grouped by shell and plane from TLE"
  },
  {
    "OBJECT_NAME": "STARLINK-30041",
    "OBJECT_ID": "23119M",
    "EPOCH": "2025-11-11T04:42:22.585536",
    "MEAN_MOTION": 15.0253845,
    "ECCENTRICITY": 0.0001551,
    "INCLINATION": 43.0059,
    "RA_OF_ASC_NODE": 5.2747,
    "ARG_OF_PERICENTER": 269.513,
    "MEAN_ANOMALY": 90.5534,
    "EPHEMERIS_TYPE": 0,
    "CLASSIFICATION_TYPE": "U",
    "NORAD_CAT_ID": 57613,
    "ELEMENT_SET_NO": 999,
    "REV_AT_EPOCH": 12526,
    "BSTAR": 5.639e-05,
    "MEAN_MOTION_DOT": 5.58e-06,
    "MEAN_MOTION_DDOT": 0.0,
    "TLE_LINE1": "1 57613U 23119M   25315.19609474  .00000558  00000+0  56390-4 0  9998",
    "TLE_LINE2": "2 57613  43.0059   5.2747 0001551 269.5130  90.5534 15.02538450125263",
    "COMMENT": "Grouped by shell and plane from TLE"
  },
  {
    "OBJECT_NAME": "STARLINK-30244",
    "OBJECT_ID": "23119N",
    "EPOCH": "2025-11-11T04:37:34.633344",
    "MEAN_MOTION": 15.02546547,
    "ECCENTRICITY": 0.0001504,
    "INCLINATION": 43.004,
    "RA_OF_ASC_NODE": 5.2513,
    "ARG_OF_PERICENTER": 283.7099,
    "MEAN_ANOMALY": 76.3576,
    "EPHEMERIS_TYPE": 0,
    "CLASSIFICATION_TYPE": "U",
    "NORAD_CAT_ID": 57614,
    "ELEMENT_SET_NO": 999,
    "REV_AT_EPOCH": 12526,
    "BSTAR": 0.00019489,
    "MEAN_MOTION_DOT": 2.431e-05,
    "MEAN_MOTION_DDOT": 0.0,
    "TLE_LINE1": "1 57614U 23119N   25315.19276196  .00002431  00000+0  19489-3 0  9999",
    "TLE_LINE2": "2 57614  43.0040   5.2513 0001504 283.7099  76.3576 15.02546547125269",
    "COMMENT": "Grouped by shell and plane from TLE"
  },
  {
    "OBJECT_NAME": "STARLINK-30246",
    "OBJECT_ID": "23119P",
    "EPOCH": "2025-11-11T04:32:46.752864",
    "MEAN_MOTION": 15.02545763,
    "ECCENTRICITY": 0.0001758,
    "INCLINATION": 43.0041,
    "RA_OF_ASC_NODE": 5.209,
    "ARG_OF_PERICENTER": 277.6137,
    "MEAN_ANOMALY": 82.4506,
    "EPHEMERIS_TYPE": 0,
    "CLASSIFICATION_TYPE": "U",
    "NORAD_CAT_ID": 57615,
    "ELEMENT_SET_NO": 999,
    "REV_AT_EPOCH": 12526,
    "BSTAR": 0.00012955,
    "MEAN_MOTION_DOT": 1.547e-05,
    "MEAN_MOTION_DDOT": 0.0,
    "TLE_LINE1": "1 57615U 23119P   25315.18943001  .00001547  00000+0  12955-3 0  9993",
    "TLE_LINE2": "2 57615  43.0041   5.2090 0001758 277.6137  82.4506 15.02545763125267",
    "COMMENT": "Grouped by shell and plane from TLE"
  },
  {
    "OBJECT_NAME": "STARLINK-30075",
    "OBJECT_ID": "23119Q",
    "EPOCH": "2025-11-11T04:28:09.439968",
    "MEAN_MOTION": 15.02543414,
    "ECCENTRICITY": 0.000188,
    "INCLINATION": 43.0037,
    "RA_OF_ASC_NODE": 6.0622,
    "ARG_OF_PERICENTER": 277.8926,
    "MEAN_ANOMALY": 82.1703,
    "EPHEMERIS_TYPE": 0,
    "CLASSIFICATION_TYPE": "U",
    "NORAD_CAT_ID": 57616,
    "ELEMENT_SET_NO": 999,
    "REV_AT_EPOCH": 12525,
    "BSTAR": 0.00012654000000000002,
    "MEAN_MOTION_DOT": 1.506e-05,
    "MEAN_MOTION_DDOT": 0.0,
    "TLE_LINE1": "1 57616U 23119Q   25315.18622037  .00001506  00000+0  12654-3 0  9998",
    "TLE_LINE2": "2 57616  43.0037   6.0622 0001880 277.8926  82.1703 15.02543414125253",
    "COMMENT": "Grouped by shell and plane from TLE"
  },
  {
    "OBJECT_NAME": "STARLINK-30148",
    "OBJECT_ID": "23119R",
    "EPOCH": "2025-11-11T04:23:21.735744",
    "MEAN_MOTION": 15.0254324,
    "ECCENTRICITY": 0.000162,
    "INCLINATION": 43.0029,
    "RA_OF_ASC_NODE": 6.039,
    "ARG_OF_PERICENTER": 275.4809,
    "MEAN_ANOMALY": 84.5849,
    "EPHEMERIS_TYPE": 0,
    "CLASSIFICATION_TYPE": "U",
    "NORAD_CAT_ID": 57617,
    "ELEMENT_SET_NO": 999,
    "REV_AT_EPOCH": 12525,
    "BSTAR": 0.00018017,
    "MEAN_MOTION_DOT": 2.231e-05,
    "MEAN_MOTION_DDOT": 0.0,
    "TLE_LINE1": "1 57617U 23119R   25315.18289046  .00002231  00000+0  18017-3 0  9993",
    "TLE_LINE2": "2 57617  43.0029   6.0390 0001620 275.4809  84.5849 15.02543240125257",
    "COMMENT": "Grouped by shell and plane from TLE"
  },
  {
    "OBJECT_NAME": "STARLINK-30249",
    "OBJECT_ID": "23119S",
    "EPOCH": "2025-11-11T04:18:34.114464",
    "MEAN_MOTION": 15.02572425,
    "ECCENTRICITY": 0.0001484,
    "INCLINATION": 43.0048,
    "RA_OF_ASC_NODE": 6.0115,
    "ARG_OF_PERICENTER": 286.9091,
    "MEAN_ANOMALY": 73.1589,
    "EPHEMERIS_TYPE": 0,
    "CLASSIFICATION_TYPE": "U",
    "NORAD_CAT_ID": 57618,
    "ELEMENT_SET_NO": 999,
    "REV_AT_EPOCH": 12525,
    "BSTAR": 0.0,
    "MEAN_MOTION_DOT": -7.411e-05,
    "MEAN_MOTION_DDOT": 0.0,
    "TLE_LINE1": "1 57618U 23119S   25315.17956151 -.00007411  00000+0 -53362-3 0  9990",
    "TLE_LINE2": "2 57618  43.0048   6.0115 0001484 286.9091  73.1589 15.02572425125254",
    "COMMENT": "Grouped by shell and plane from TLE"
  }
]